<?xml version="1.0" encoding="ISO-8859-1"?><cdm xmlns:ndm="urn:ccsds:recommendation:navigation:schema:ndmxml" xmlns:xsi="http://www.w3.org/2001/XMLSchema-instance" id="CCSDS_CDM_VERS" version="1.0" xsi:noNamespaceSchemaLocation="http://sanaregistry.org/r/ndmxml/ndmxml-1.0-master.xsd"><header><COMMENT>Secondary = Almanac; Radius = DISCOS</COMMENT><COMMENT>EVENT_ID:CA-24001A-90094A-202312021836</COMMENT><CREATION_DATE>2023-11-24T19:09:06.149</CREATION_DATE><ORIGINATOR>CAESAR</ORIGINATOR><MESSAGE_FOR>SAT_1</MESSAGE_FOR><MESSAGE_ID>ALM_GEO_16138835</MESSAGE_ID></header><body><relativeMetadataData><TCA>2023-12-02T18:37:14.909</TCA><MISS_DISTANCE units="m">4487.9919699161055</MISS_DISTANCE><RELATIVE_SPEED units="m/s">725.2670597848127</RELATIVE_SPEED><relativeStateVector><RELATIVE_POSITION_R units="m">316.41369071276085</RELATIVE_POSITION_R><RELATIVE_POSITION_T units="m">4445.292426254398</RELATIVE_POSITION_T><RELATIVE_POSITION_N units="m">530.4050748684994</RELATIVE_POSITION_N><RELATIVE_VELOCITY_R units="m/s">-0.5056981898086044</RELATIVE_VELOCITY_R><RELATIVE_VELOCITY_T units="m/s">-85.87418004906678</RELATIVE_VELOCITY_T><RELATIVE_VELOCITY_N units="m/s">720.1650348907175</RELATIVE_VELOCITY_N></relativeStateVector><START_SCREEN_PERIOD>2023-11-24T16:47:22.393</START_SCREEN_PERIOD><STOP_SCREEN_PERIOD>2023-12-08T16:47:22.393</STOP_SCREEN_PERIOD><SCREEN_VOLUME_FRAME>RTN</SCREEN_VOLUME_FRAME><SCREEN_VOLUME_SHAPE>ELLIPSOID</SCREEN_VOLUME_SHAPE><SCREEN_VOLUME_X units="m">50000.0</SCREEN_VOLUME_X><SCREEN_VOLUME_Y units="m">50000.0</SCREEN_VOLUME_Y><SCREEN_VOLUME_Z units="m">50000.0</SCREEN_VOLUME_Z><SCREEN_ENTRY_TIME>2023-12-02T18:36:06.246</SCREEN_ENTRY_TIME><SCREEN_EXIT_TIME>2023-12-02T18:38:23.571</SCREEN_EXIT_TIME></relativeMetadataData><segment><metadata><OBJECT>OBJECT1</OBJECT><OBJECT_DESIGNATOR>00001</OBJECT_DESIGNATOR><CATALOG_NAME>SATCAT</CATALOG_NAME><OBJECT_NAME>SAT_1</OBJECT_NAME><INTERNATIONAL_DESIGNATOR>2024-001A</INTERNATIONAL_DESIGNATOR><OBJECT_TYPE>UNKNOWN</OBJECT_TYPE><EPHEMERIS_NAME>2024-001A_SAT_1_OPER_20231124T150500_S20231124T150000_E20231227T120000.jspoc</EPHEMERIS_NAME><COVARIANCE_METHOD>CALCULATED</COVARIANCE_METHOD><MANEUVERABLE>YES</MANEUVERABLE><REF_FRAME>ITRF</REF_FRAME></metadata><data><odParameters/><additionalParameters><COMMENT>JAC_LAST_ACC_OB = N/A</COMMENT><AREA_PC units="m**2">1231.6299839133426</AREA_PC></additionalParameters><stateVector><X units="km">41841.22159072416</X><Y units="km">-5327.606632000413</Y><Z units="km">-18.514150868063407</Z><X_DOT units="km/s">0.0017039930661408107</X_DOT><Y_DOT units="km/s">-0.0023182940151596086</Y_DOT><Z_DOT units="km/s">0.003993021025897839</Z_DOT></stateVector><covarianceMatrix><CR_R units="m**2">1317.6900000000026</CR_R><CT_R units="m**2">-3.3668623444782497E-12</CT_R><CT_T units="m**2">227528.4895987507</CT_T><CN_R units="m**2">7.105427357601002E-15</CN_R><CN_T units="m**2">4.973799150320701E-14</CN_T><CN_N units="m**2">45330.00372820221</CN_N><CRDOT_R units="m**2/s">5.536190402595162E-16</CRDOT_R><CRDOT_T units="m**2/s">-16.58040737942765</CRDOT_T><CRDOT_N units="m**2/s">0.0</CRDOT_N><CRDOT_RDOT units="m**2/s**2">0.0012082438966328388</CRDOT_RDOT><CTDOT_R units="m**2/s">0.09602242355815294</CTDOT_R><CTDOT_T units="m**2/s">-3.0593094299027947E-16</CTDOT_T><CTDOT_N units="m**2/s">-3.049318610115481E-19</CTDOT_N><CTDOT_RDOT units="m**2/s**2">3.471075870912536E-20</CTDOT_RDOT><CTDOT_TDOT units="m**2/s**2">6.997325490806892E-6</CTDOT_TDOT><CNDOT_R units="m**2/s">0.0</CNDOT_R><CNDOT_T units="m**2/s">0.0</CNDOT_T><CNDOT_N units="m**2/s">0.0</CNDOT_N><CNDOT_RDOT units="m**2/s**2">-2.263083535492954E-29</CNDOT_RDOT><CNDOT_TDOT units="m**2/s**2">6.717700478699588E-29</CNDOT_TDOT><CNDOT_NDOT units="m**2/s**2">5.169873968664531E-26</CNDOT_NDOT><CDRG_R units="m**3/kg">0.0</CDRG_R><CDRG_T units="m**3/kg">0.0</CDRG_T><CDRG_N units="m**3/kg">0.0</CDRG_N><CDRG_RDOT units="m**3/(kg*s)">0.0</CDRG_RDOT><CDRG_TDOT units="m**3/(kg*s)">0.0</CDRG_TDOT><CDRG_NDOT units="m**3/(kg*s)">0.0</CDRG_NDOT><CDRG_DRG units="m**4/kg**2">0.0</CDRG_DRG><CSRP_R units="m**3/kg">0.0</CSRP_R><CSRP_T units="m**3/kg">0.0</CSRP_T><CSRP_N units="m**3/kg">0.0</CSRP_N><CSRP_RDOT units="m**3/(kg*s)">0.0</CSRP_RDOT><CSRP_TDOT units="m**3/(kg*s)">0.0</CSRP_TDOT><CSRP_NDOT units="m**3/(kg*s)">0.0</CSRP_NDOT><CSRP_DRG units="m**4/kg**2">0.0</CSRP_DRG><CSRP_SRP units="m**4/kg**2">0.0</CSRP_SRP></covarianceMatrix></data></segment><segment><metadata><OBJECT>OBJECT2</OBJECT><OBJECT_DESIGNATOR>20923</OBJECT_DESIGNATOR><CATALOG_NAME>SATCAT</CATALOG_NAME><OBJECT_NAME>GORIZONT 21</OBJECT_NAME><INTERNATIONAL_DESIGNATOR>1990-094A</INTERNATIONAL_DESIGNATOR><OBJECT_TYPE>UNKNOWN</OBJECT_TYPE><EPHEMERIS_NAME>almLe20231123_105416Au20231123_070042</EPHEMERIS_NAME><COVARIANCE_METHOD>CALCULATED</COVARIANCE_METHOD><MANEUVERABLE>NO</MANEUVERABLE><REF_FRAME>ITRF</REF_FRAME><GRAVITY_MODEL>EIGEN GL04S: 24D 24O</GRAVITY_MODEL><ATMOSPHERIC_MODEL>NONE</ATMOSPHERIC_MODEL><N_BODY_PERTURBATIONS>MOON,SUN</N_BODY_PERTURBATIONS><SOLAR_RAD_PRESSURE>YES</SOLAR_RAD_PRESSURE><EARTH_TIDES>NO</EARTH_TIDES></metadata><data><odParameters><TIME_LASTOB_START>2023-11-23T07:00:42.468</TIME_LASTOB_START><TIME_LASTOB_END>2023-11-23T07:00:42.468</TIME_LASTOB_END><RECOMMENDED_OD_SPAN units="d">14.0</RECOMMENDED_OD_SPAN><ACTUAL_OD_SPAN units="d">13.363258790139005</ACTUAL_OD_SPAN><OBS_AVAILABLE>535</OBS_AVAILABLE><OBS_USED>535</OBS_USED><TRACKS_AVAILABLE>25</TRACKS_AVAILABLE><TRACKS_USED>25</TRACKS_USED><RESIDUALS_ACCEPTED units="%">100.0</RESIDUALS_ACCEPTED><WEIGHTED_RMS>0.5638776066845506</WEIGHTED_RMS></odParameters><additionalParameters><COMMENT>JAC_LAST_ACC_OB = Greater Than (&gt;) 48 Hours</COMMENT><AREA_PC units="m**2">101.93376457451753</AREA_PC><CR_AREA_OVER_MASS units="m**2/kg">0.007470071965720084</CR_AREA_OVER_MASS></additionalParameters><stateVector><X units="km">41842.09709805129</X><Y units="km">-5323.237625992242</Y><Z units="km">-17.978104841325067</Z><X_DOT units="km/s">-0.009448946219833608</X_DOT><Y_DOT units="km/s">-0.08840967902977358</Y_DOT><Z_DOT units="km/s">0.7240461068177001</Z_DOT></stateVector><covarianceMatrix><CR_R units="m**2">19197.38057137222</CR_R><CT_R units="m**2">28521.856887356837</CT_R><CT_T units="m**2">56838.89349558087</CT_T><CN_R units="m**2">304.8655607800028</CN_R><CN_T units="m**2">676.832425239057</CN_T><CN_N units="m**2">450.64299065223815</CN_N><CRDOT_R units="m**2/s">-2.1876918677224855</CRDOT_R><CRDOT_T units="m**2/s">-4.230891818376875</CRDOT_T><CRDOT_N units="m**2/s">-0.053648441825213444</CRDOT_N><CRDOT_RDOT units="m**2/s**2">3.173613967977032E-4</CRDOT_RDOT><CTDOT_R units="m**2/s">-1.4084678978963574</CTDOT_R><CTDOT_T units="m**2/s">-2.0963465363944596</CTDOT_T><CTDOT_N units="m**2/s">-0.022545483949979572</CTDOT_N><CTDOT_RDOT units="m**2/s**2">1.6076929242616077E-4</CTDOT_RDOT><CTDOT_TDOT units="m**2/s**2">1.03337430858822E-4</CTDOT_TDOT><CNDOT_R units="m**2/s">-0.0200932176220541</CNDOT_R><CNDOT_T units="m**2/s">-0.03715399496023927</CNDOT_T><CNDOT_N units="m**2/s">-0.01689024821487717</CNDOT_N><CNDOT_RDOT units="m**2/s**2">2.7961098821551674E-6</CNDOT_RDOT><CNDOT_TDOT units="m**2/s**2">1.4789946428401288E-6</CNDOT_TDOT><CNDOT_NDOT units="m**2/s**2">8.36150173349395E-7</CNDOT_NDOT><CDRG_R units="m**3/kg">0.0</CDRG_R><CDRG_T units="m**3/kg">0.0</CDRG_T><CDRG_N units="m**3/kg">0.0</CDRG_N><CDRG_RDOT units="m**3/(kg*s)">0.0</CDRG_RDOT><CDRG_TDOT units="m**3/(kg*s)">0.0</CDRG_TDOT><CDRG_NDOT units="m**3/(kg*s)">0.0</CDRG_NDOT><CDRG_DRG units="m**4/kg**2">0.0</CDRG_DRG><CSRP_R units="m**3/kg">0.0</CSRP_R><CSRP_T units="m**3/kg">0.0</CSRP_T><CSRP_N units="m**3/kg">0.0</CSRP_N><CSRP_RDOT units="m**3/(kg*s)">0.0</CSRP_RDOT><CSRP_TDOT units="m**3/(kg*s)">0.0</CSRP_TDOT><CSRP_NDOT units="m**3/(kg*s)">0.0</CSRP_NDOT><CSRP_DRG units="m**4/kg**2">0.0</CSRP_DRG><CSRP_SRP units="m**4/kg**2">0.0</CSRP_SRP></covarianceMatrix></data></segment></body></cdm>